start=new Date('2022-04-20T00:00:00.000Z').valueOf();
sats=[{"MEAN_MOTION_DDOT":"0.0000000000000","LAUNCH_DATE":"2020-10-06","MEAN_ELEMENT_THEORY":"SGP4","PERIOD":"95.593","MEAN_MOTION_DOT":"0.00003412","RCS_SIZE":"LARGE","EPHEMERIS_TYPE":"0","FILE":"3408368","SITE":"AFETR","ECCENTRICITY":"0.00015640","TLE_LINE2":"2 46533  53.0552  73.1001 0001564  55.0195 305.0941 15.06392280 85412","NORAD_CAT_ID":"46533","ELEMENT_SET_NO":"999","REV_AT_EPOCH":"8541","GP_ID":"201626242","INCLINATION":"53.0552","ARG_OF_PERICENTER":"55.0195","REF_FRAME":"TEME","OBJECT_NAME":"STARLINK-1648","TLE_LINE1":"1 46533U 20070B   22109.27388062  .00003412  00000-0  24787-3 0  9991","OBJECT_TYPE":"PAYLOAD","RA_OF_ASC_NODE":"73.1001","APOAPSIS":"548.320","TIME_SYSTEM":"UTC","OBJECT_ID":"2020-070B","CENTER_NAME":"EARTH","BSTAR":"0.00024787000000","EPOCH":"2022-04-19T06:34:23.285568","CLASSIFICATION_TYPE":"U","COUNTRY_CODE":"US","SEMIMAJOR_AXIS":"6925.372","DECAY_DATE":null,"MEAN_ANOMALY":"305.0941","MEAN_MOTION":"15.06392280","PERIAPSIS":"546.154"},{"MEAN_MOTION":"15.06407063","MEAN_ANOMALY":"307.0249","PERIAPSIS":"545.862","CLASSIFICATION_TYPE":"U","DECAY_DATE":null,"COUNTRY_CODE":"US","SEMIMAJOR_AXIS":"6925.327","OBJECT_ID":"2020-070C","CENTER_NAME":"EARTH","TIME_SYSTEM":"UTC","APOAPSIS":"548.522","BSTAR":"0.00011432000000","EPOCH":"2022-04-19T20:27:41.652288","ARG_OF_PERICENTER":"53.0915","OBJECT_NAME":"STARLINK-1659","TLE_LINE1":"1 46534U 20070C   22109.85256542  .00001422  00000-0  11432-3 0  9995","RA_OF_ASC_NODE":"70.5199","OBJECT_TYPE":"PAYLOAD","REF_FRAME":"TEME","REV_AT_EPOCH":"8552","GP_ID":"201636906","INCLINATION":"53.0561","FILE":"3408646","EPHEMERIS_TYPE":"0","SITE":"AFETR","RCS_SIZE":"LARGE","ELEMENT_SET_NO":"999","TLE_LINE2":"2 46534  53.0561  70.5199 0001921  53.0915 307.0249 15.06407063 85528","NORAD_CAT_ID":"46534","ECCENTRICITY":"0.00019210","PERIOD":"95.592","MEAN_ELEMENT_THEORY":"SGP4","MEAN_MOTION_DOT":"0.00001422","MEAN_MOTION_DDOT":"0.0000000000000","LAUNCH_DATE":"2020-10-06"},{"MEAN_MOTION_DDOT":"0.0000000000000","LAUNCH_DATE":"2020-10-06","MEAN_MOTION_DOT":"0.00001889","MEAN_ELEMENT_THEORY":"SGP4","PERIOD":"95.592","ECCENTRICITY":"0.00018230","TLE_LINE2":"2 46535  53.0554  72.9490 0001823  49.4213 310.6934 15.06399945 85410","NORAD_CAT_ID":"46535","ELEMENT_SET_NO":"999","RCS_SIZE":"LARGE","SITE":"AFETR","FILE":"3408368","EPHEMERIS_TYPE":"0","INCLINATION":"53.0554","GP_ID":"201627244","REV_AT_EPOCH":"8541","REF_FRAME":"TEME","OBJECT_NAME":"STARLINK-1663","RA_OF_ASC_NODE":"72.9490","TLE_LINE1":"1 46535U 20070D   22109.31072620  .00001889  00000-0  14567-3 0  9999","OBJECT_TYPE":"PAYLOAD","ARG_OF_PERICENTER":"49.4213","BSTAR":"0.00014567000000","EPOCH":"2022-04-19T07:27:26.743680","APOAPSIS":"548.476","TIME_SYSTEM":"UTC","OBJECT_ID":"2020-070D","CENTER_NAME":"EARTH","COUNTRY_CODE":"US","SEMIMAJOR_AXIS":"6925.349","DECAY_DATE":null,"CLASSIFICATION_TYPE":"U","PERIAPSIS":"545.951","MEAN_ANOMALY":"310.6934","MEAN_MOTION":"15.06399945"},{"MEAN_MOTION_DDOT":"0.0000000000000","LAUNCH_DATE":"2020-10-06","MEAN_MOTION_DOT":"0.00005868","PERIOD":"95.592","MEAN_ELEMENT_THEORY":"SGP4","NORAD_CAT_ID":"46537","TLE_LINE2":"2 46537  53.0534  72.5214 0001415  65.2151 294.8985 15.06407864 85435","ELEMENT_SET_NO":"999","ECCENTRICITY":"0.00014150","FILE":"3408368","EPHEMERIS_TYPE":"0","SITE":"AFETR","RCS_SIZE":"LARGE","INCLINATION":"53.0534","GP_ID":"201627995","REV_AT_EPOCH":"8543","OBJECT_NAME":"STARLINK-1672","TLE_LINE1":"1 46537U 20070F   22109.40288802  .00005868  00000-0  41239-3 0  9999","OBJECT_TYPE":"PAYLOAD","RA_OF_ASC_NODE":"72.5214","REF_FRAME":"TEME","ARG_OF_PERICENTER":"65.2151","BSTAR":"0.00041239000000","EPOCH":"2022-04-19T09:40:09.524928","OBJECT_ID":"2020-070F","CENTER_NAME":"EARTH","TIME_SYSTEM":"UTC","APOAPSIS":"548.169","DECAY_DATE":null,"COUNTRY_CODE":"US","SEMIMAJOR_AXIS":"6925.324","CLASSIFICATION_TYPE":"U","PERIAPSIS":"546.210","MEAN_MOTION":"15.06407864","MEAN_ANOMALY":"294.8985"},{"CENTER_NAME":"EARTH","OBJECT_ID":"2020-070G","APOAPSIS":"548.521","TIME_SYSTEM":"UTC","EPOCH":"2022-04-19T07:32:45.604608","BSTAR":"0.00005133500000","ARG_OF_PERICENTER":"49.3040","TLE_LINE1":"1 46538U 20070G   22109.31441672  .00000483  00000-0  51335-4 0  9993","OBJECT_TYPE":"PAYLOAD","RA_OF_ASC_NODE":"72.9248","OBJECT_NAME":"STARLINK-1678","REF_FRAME":"TEME","MEAN_MOTION":"15.06398776","MEAN_ANOMALY":"310.8112","PERIAPSIS":"545.913","CLASSIFICATION_TYPE":"U","DECAY_DATE":null,"SEMIMAJOR_AXIS":"6925.352","COUNTRY_CODE":"US","PERIOD":"95.592","MEAN_ELEMENT_THEORY":"SGP4","MEAN_MOTION_DOT":"0.00000483","LAUNCH_DATE":"2020-10-06","MEAN_MOTION_DDOT":"0.0000000000000","REV_AT_EPOCH":"8541","INCLINATION":"53.0547","GP_ID":"201626743","FILE":"3408368","SITE":"AFETR","EPHEMERIS_TYPE":"0","RCS_SIZE":"LARGE","TLE_LINE2":"2 46538  53.0547  72.9248 0001883  49.3040 310.8112 15.06398776 85410","NORAD_CAT_ID":"46538","ELEMENT_SET_NO":"999","ECCENTRICITY":"0.00018830"},{"CENTER_NAME":"EARTH","OBJECT_ID":"2020-070K","APOAPSIS":"548.124","TIME_SYSTEM":"UTC","EPOCH":"2022-04-19T05:28:02.166240","BSTAR":"0.00130240000000","ARG_OF_PERICENTER":"75.4587","TLE_LINE1":"1 46541U 20070K   22109.22780285  .00019182  00000-0  13024-2 0  9990","OBJECT_TYPE":"PAYLOAD","RA_OF_ASC_NODE":"53.3283","OBJECT_NAME":"STARLINK-1687","REF_FRAME":"TEME","MEAN_MOTION":"15.06421314","MEAN_ANOMALY":"284.6558","PERIAPSIS":"546.172","CLASSIFICATION_TYPE":"U","DECAY_DATE":null,"SEMIMAJOR_AXIS":"6925.283","COUNTRY_CODE":"US","PERIOD":"95.591","MEAN_ELEMENT_THEORY":"SGP4","MEAN_MOTION_DOT":"0.00019182","LAUNCH_DATE":"2020-10-06","MEAN_MOTION_DDOT":"0.0000000000000","REV_AT_EPOCH":"8568","GP_ID":"201626993","INCLINATION":"53.0571","FILE":"3408368","EPHEMERIS_TYPE":"0","SITE":"AFETR","RCS_SIZE":"LARGE","TLE_LINE2":"2 46541  53.0571  53.3283 0001409  75.4587 284.6558 15.06421314 85689","NORAD_CAT_ID":"46541","ELEMENT_SET_NO":"999","ECCENTRICITY":"0.00014090"},{"TLE_LINE1":"1 46542U 20070L   22109.62772321  .00001313  00000-0  10701-3 0  9994","OBJECT_TYPE":"PAYLOAD","RA_OF_ASC_NODE":"71.5234","OBJECT_NAME":"STARLINK-1692","REF_FRAME":"TEME","ARG_OF_PERICENTER":"58.0177","EPOCH":"2022-04-19T15:03:55.285344","BSTAR":"0.00010701000000","CENTER_NAME":"EARTH","OBJECT_ID":"2020-070L","TIME_SYSTEM":"UTC","APOAPSIS":"548.458","DECAY_DATE":null,"SEMIMAJOR_AXIS":"6925.354","COUNTRY_CODE":"US","CLASSIFICATION_TYPE":"U","PERIAPSIS":"545.980","MEAN_MOTION":"15.06398206","MEAN_ANOMALY":"302.0986","LAUNCH_DATE":"2020-10-06","MEAN_MOTION_DDOT":"0.0000000000000","MEAN_MOTION_DOT":"0.00001313","PERIOD":"95.592","MEAN_ELEMENT_THEORY":"SGP4","NORAD_CAT_ID":"46542","TLE_LINE2":"2 46542  53.0550  71.5234 0001789  58.0177 302.0986 15.06398206 85489","ELEMENT_SET_NO":"999","ECCENTRICITY":"0.00017890","FILE":"3408711","EPHEMERIS_TYPE":"0","SITE":"AFETR","RCS_SIZE":"LARGE","GP_ID":"201639101","INCLINATION":"53.0550","REV_AT_EPOCH":"8548"},{"ECCENTRICITY":"0.00020130","NORAD_CAT_ID":"46543","TLE_LINE2":"2 46543  53.0544  72.7719 0002013  50.2096 309.9070 15.06415710 85423","ELEMENT_SET_NO":"999","RCS_SIZE":"LARGE","SITE":"AFETR","FILE":"3408368","EPHEMERIS_TYPE":"0","GP_ID":"201627495","INCLINATION":"53.0544","REV_AT_EPOCH":"8542","MEAN_MOTION_DDOT":"0.0000000000000","LAUNCH_DATE":"2020-10-06","MEAN_MOTION_DOT":"0.00010775","MEAN_ELEMENT_THEORY":"SGP4","PERIOD":"95.591","COUNTRY_CODE":"US","SEMIMAJOR_AXIS":"6925.300","DECAY_DATE":null,"CLASSIFICATION_TYPE":"U","PERIAPSIS":"545.771","MEAN_ANOMALY":"309.9070","MEAN_MOTION":"15.06415710","REF_FRAME":"TEME","OBJECT_NAME":"STARLINK-1693","TLE_LINE1":"1 46543U 20070M   22109.34760273  .00010775  00000-0  74087-3 0  9996","RA_OF_ASC_NODE":"72.7719","OBJECT_TYPE":"PAYLOAD","ARG_OF_PERICENTER":"50.2096","BSTAR":"0.00074087000000","EPOCH":"2022-04-19T08:20:32.875872","APOAPSIS":"548.559","TIME_SYSTEM":"UTC","OBJECT_ID":"2020-070M","CENTER_NAME":"EARTH"},{"ARG_OF_PERICENTER":"56.8384","OBJECT_NAME":"STARLINK-1694","TLE_LINE1":"1 46544U 20070N   22109.87421541  .00002665  00000-0  19773-3 0  9997","RA_OF_ASC_NODE":"55.4237","OBJECT_TYPE":"PAYLOAD","REF_FRAME":"TEME","OBJECT_ID":"2020-070N","CENTER_NAME":"EARTH","APOAPSIS":"548.445","TIME_SYSTEM":"UTC","BSTAR":"0.00019773000000","EPOCH":"2022-04-19T20:58:52.211424","CLASSIFICATION_TYPE":"U","DECAY_DATE":null,"COUNTRY_CODE":"US","SEMIMAJOR_AXIS":"6925.345","MEAN_MOTION":"15.06401216","MEAN_ANOMALY":"303.2776","PERIAPSIS":"545.974","MEAN_MOTION_DDOT":"0.0000000000000","LAUNCH_DATE":"2020-10-06","PERIOD":"95.592","MEAN_ELEMENT_THEORY":"SGP4","MEAN_MOTION_DOT":"0.00002665","SITE":"AFETR","FILE":"3408712","EPHEMERIS_TYPE":"0","RCS_SIZE":"LARGE","ELEMENT_SET_NO":"999","TLE_LINE2":"2 46544  53.0560  55.4237 0001784  56.8384 303.2776 15.06401216 85720","NORAD_CAT_ID":"46544","ECCENTRICITY":"0.00017840","REV_AT_EPOCH":"8572","GP_ID":"201639607","INCLINATION":"53.0560"},{"MEAN_MOTION_DOT":"0.00005696","MEAN_ELEMENT_THEORY":"SGP4","PERIOD":"95.591","LAUNCH_DATE":"2020-10-06","MEAN_MOTION_DDOT":"0.0000000000000","INCLINATION":"53.0562","GP_ID":"201626493","REV_AT_EPOCH":"8545","ECCENTRICITY":"0.00015410","TLE_LINE2":"2 46545  53.0562  71.7372 0001541  60.5882 299.5261 15.06417958 85456","NORAD_CAT_ID":"46545","ELEMENT_SET_NO":"999","RCS_SIZE":"LARGE","SITE":"AFETR","FILE":"3408368","EPHEMERIS_TYPE":"0","EPOCH":"2022-04-19T14:00:13.435776","BSTAR":"0.00040077000000","APOAPSIS":"548.226","TIME_SYSTEM":"UTC","CENTER_NAME":"EARTH","OBJECT_ID":"2020-070P","REF_FRAME":"TEME","OBJECT_TYPE":"PAYLOAD","TLE_LINE1":"1 46545U 20070P   22109.58348884  .00005696  00000-0  40077-3 0  9992","RA_OF_ASC_NODE":"71.7372","OBJECT_NAME":"STARLINK-1696","ARG_OF_PERICENTER":"60.5882","PERIAPSIS":"546.091","MEAN_ANOMALY":"299.5261","MEAN_MOTION":"15.06417958","SEMIMAJOR_AXIS":"6925.294","COUNTRY_CODE":"US","DECAY_DATE":null,"CLASSIFICATION_TYPE":"U"}];
